{"type": "FeatureCollection", "features": [ {"type": "Feature", "properties": {"norad_id": 33841, "name": "COSMOS 2251 DEB", "group": "cosmos-2251-debris", "lat": -46.047871481288794, "lon": -120.70965960314523, "alt_km": 758.153493771355, "timestamp": "2025-12-24T09:46:31.397629+00:00", "meta": {"OBJECT_NAME": "COSMOS 2251 DEB", "OBJECT_ID": "1993-036CJ", "EPOCH": "2025-12-23T17:27:11.388096", "MEAN_MOTION": 14.37875344, "ECCENTRICITY": 0.00209715, "INCLINATION": 74.0376, "RA_OF_ASC_NODE": 257.8127, "ARG_OF_PERICENTER": 336.2105, "MEAN_ANOMALY": 56.496, "EPHEMERIS_TYPE": 0, "CLASSIFICATION_TYPE": "U", "NORAD_CAT_ID": 33841, "ELEMENT_SET_NO": 999, "REV_AT_EPOCH": 88272, "BSTAR": 0.00019464312, "MEAN_MOTION_DOT": 5.62e-06, "MEAN_MOTION_DDOT": 0}, "tle": {"line1": "1 33841U 93036CJ  25357.72721514  .00000562  00000+0  19464-3 0  9990", "line2": "2 33841  74.0376 257.8127 0020971 336.2105  56.4960 14.37875344882722"}}, "geometry": {"type": "Point", "coordinates": [-120.70965960314523, -46.047871481288794]}}, {"type": "Feature", "properties": {"norad_id": 33842, "name": "COSMOS 2251 DEB", "group": "cosmos-2251-debris", "lat": 47.40338582679663, "lon": -143.85989588210424, "alt_km": 754.7588113254469, "timestamp": "2025-12-24T09:46:31.397639+00:00", "meta": {"OBJECT_NAME": "COSMOS 2251 DEB", "OBJECT_ID": "1993-036CK", "EPOCH": "2025-12-23T21:53:43.895904", "MEAN_MOTION": 14.42717675, "ECCENTRICITY": 0.0047565, "INCLINATION": 74.0315, "RA_OF_ASC_NODE": 198.9135, "ARG_OF_PERICENTER": 304.0417, "MEAN_ANOMALY": 55.6227, "EPHEMERIS_TYPE": 0, "CLASSIFICATION_TYPE": "U", "NORAD_CAT_ID": 33842, "ELEMENT_SET_NO": 999, "REV_AT_EPOCH": 88498, "BSTAR": 0.000247, "MEAN_MOTION_DOT": 8.06e-06, "MEAN_MOTION_DDOT": 0}, "tle": {"line1": "1 33842U 93036CK  25357.91231361  .00000806  00000+0  24700-3 0  9998", "line2": "2 33842  74.0315 198.9135 0047565 304.0417  55.6227 14.42717675884982"}}, "geometry": {"type": "Point", "coordinates": [-143.85989588210424, 47.40338582679663]}}, {"type": "Feature", "properties": {"norad_id": 33844, "name": "COSMOS 2251 DEB", "group": "cosmos-2251-debris", "lat": -35.817560075404096, "lon": 19.579636456355836, "alt_km": 783.3244082214196, "timestamp": "2025-12-24T09:46:31.397651+00:00", "meta": {"OBJECT_NAME": "COSMOS 2251 DEB", "OBJECT_ID": "1993-036CM", "EPOCH": "2025-12-24T03:33:03.871872", "MEAN_MOTION": 14.33738008, "ECCENTRICITY": 0.0047178, "INCLINATION": 74.0665, "RA_OF_ASC_NODE": 31.9508, "ARG_OF_PERICENTER": 50.2335, "MEAN_ANOMALY": 14.8468, "EPHEMERIS_TYPE": 0, "CLASSIFICATION_TYPE": "U", "NORAD_CAT_ID": 33844, "ELEMENT_SET_NO": 999, "REV_AT_EPOCH": 87889, "BSTAR": 0.00033014, "MEAN_MOTION_DOT": 9.03e-06, "MEAN_MOTION_DDOT": 0}, "tle": {"line1": "1 33844U 93036CM  25358.14796148  .00000903  00000+0  33014-3 0  9991", "line2": "2 33844  74.0665  31.9508 0047178  50.2335  14.8468 14.33738008878891"}}, "geometry": {"type": "Point", "coordinates": [19.579636456355836, -35.817560075404096]}}, {"type": "Feature", "properties": {"norad_id": 33848, "name": "COSMOS 2251 DEB", "group": "cosmos-2251-debris", "lat": -36.036381464696376, "lon": 167.95513173149305, "alt_km": 780.2243694247773, "timestamp": "2025-12-24T09:46:31.397665+00:00", "meta": {"OBJECT_NAME": "COSMOS 2251 DEB", "OBJECT_ID": "1993-036CR", "EPOCH": "2025-12-24T00:46:10.193952", "MEAN_MOTION": 14.44136505, "ECCENTRICITY": 0.0041839, "INCLINATION": 74.0324, "RA_OF_ASC_NODE": 336.6302, "ARG_OF_PERICENTER": 29.1703, "MEAN_ANOMALY": 38.4679, "EPHEMERIS_TYPE": 0, "CLASSIFICATION_TYPE": "U", "NORAD_CAT_ID": 33848, "ELEMENT_SET_NO": 999, "REV_AT_EPOCH": 87994, "BSTAR": 0.0011681, "MEAN_MOTION_DOT": 4.022e-05, "MEAN_MOTION_DDOT": 0}, "tle": {"line1": "1 33848U 93036CR  25358.03206243  .00004022  00000+0  11681-2 0  9996", "line2": "2 33848  74.0324 336.6302 0041839  29.1703  38.4679 14.44136505879945"}}, "geometry": {"type": "Point", "coordinates": [167.95513173149305, -36.036381464696376]}}, {"type": "Feature", "properties": {"norad_id": 33892, "name": "COSMOS 2251 DEB", "group": "cosmos-2251-debris", "lat": -8.85042123892606, "lon": 78.17933692197161, "alt_km": 855.8732416158518, "timestamp": "2025-12-24T09:46:31.397676+00:00", "meta": {"OBJECT_NAME": "COSMOS 2251 DEB", "OBJECT_ID": "1993-036CV", "EPOCH": "2025-12-23T07:05:37.567680", "MEAN_MOTION": 14.23371664, "ECCENTRICITY": 0.01122305, "INCLINATION": 73.8024, "RA_OF_ASC_NODE": 82.8009, "ARG_OF_PERICENTER": 111.9648, "MEAN_ANOMALY": 305.6008, "EPHEMERIS_TYPE": 0, "CLASSIFICATION_TYPE": "U", "NORAD_CAT_ID": 33892, "ELEMENT_SET_NO": 999, "REV_AT_EPOCH": 87105, "BSTAR": 0.00057999949, "MEAN_MOTION_DOT": 1.378e-05, "MEAN_MOTION_DDOT": 0}, "tle": {"line1": "1 33892U 93036CV  25357.29557370  .00001378  00000+0  58000-3 0  9990", "line2": "2 33892  73.8024  82.8009 0112230 111.9648 305.6008 14.23371664871057"}}, "geometry": {"type": "Point", "coordinates": [78.17933692197161, -8.85042123892606]}}, {"type": "Feature", "properties": {"norad_id": 33894, "name": "COSMOS 2251 DEB", "group": "cosmos-2251-debris", "lat": -50.77145438700217, "lon": -49.881198240756035, "alt_km": 932.9507822276673, "timestamp": "2025-12-24T09:46:31.397687+00:00", "meta": {"OBJECT_NAME": "COSMOS 2251 DEB", "OBJECT_ID": "1993-036CX", "EPOCH": "2025-12-23T08:36:16.381152", "MEAN_MOTION": 13.21325224, "ECCENTRICITY": 0.05788054, "INCLINATION": 73.7666, "RA_OF_ASC_NODE": 332.6471, "ARG_OF_PERICENTER": 250.6671, "MEAN_ANOMALY": 103.0989, "EPHEMERIS_TYPE": 0, "CLASSIFICATION_TYPE": "U", "NORAD_CAT_ID": 33894, "ELEMENT_SET_NO": 999, "REV_AT_EPOCH": 80848, "BSTAR": 0.00065331704, "MEAN_MOTION_DOT": 6.26e-06, "MEAN_MOTION_DDOT": 0}, "tle": {"line1": "1 33894U 93036CX  25357.35852293  .00000626  00000+0  65332-3 0  9992", "line2": "2 33894  73.7666 332.6471 0578805 250.6671 103.0989 13.21325224808483"}}, "geometry": {"type": "Point", "coordinates": [-49.881198240756035, -50.77145438700217]}}, {"type": "Feature", "properties": {"norad_id": 33896, "name": "COSMOS 2251 DEB", "group": "cosmos-2251-debris", "lat": -55.52830052006189, "lon": -19.389002974118846, "alt_km": 803.1430071300229, "timestamp": "2025-12-24T09:46:31.397697+00:00", "meta": {"OBJECT_NAME": "COSMOS 2251 DEB", "OBJECT_ID": "1993-036CZ", "EPOCH": "2025-12-24T02:24:59.279904", "MEAN_MOTION": 14.19063932, "ECCENTRICITY": 0.0127111, "INCLINATION": 73.7665, "RA_OF_ASC_NODE": 136.0573, "ARG_OF_PERICENTER": 309.9227, "MEAN_ANOMALY": 164.7389, "EPHEMERIS_TYPE": 0, "CLASSIFICATION_TYPE": "U", "NORAD_CAT_ID": 33896, "ELEMENT_SET_NO": 999, "REV_AT_EPOCH": 86901, "BSTAR": 0.00057223, "MEAN_MOTION_DOT": 1.268e-05, "MEAN_MOTION_DDOT": 0}, "tle": {"line1": "1 33896U 93036CZ  25358.10068611  .00001268  00000+0  57223-3 0  9994", "line2": "2 33896  73.7665 136.0573 0127111 309.9227 164.7389 14.19063932869015"}}, "geometry": {"type": "Point", "coordinates": [-19.389002974118846, -55.52830052006189]}}, {"type": "Feature", "properties": {"norad_id": 33899, "name": "COSMOS 2251 DEB", "group": "cosmos-2251-debris", "lat": -48.010912392793436, "lon": -98.03649266430594, "alt_km": 707.448134699297, "timestamp": "2025-12-24T09:46:31.397708+00:00", "meta": {"OBJECT_NAME": "COSMOS 2251 DEB", "OBJECT_ID": "1993-036DC", "EPOCH": "2025-12-23T11:28:17.893632", "MEAN_MOTION": 14.61275441, "ECCENTRICITY": 0.00560268, "INCLINATION": 74.0532, "RA_OF_ASC_NODE": 65.2153, "ARG_OF_PERICENTER": 124.7268, "MEAN_ANOMALY": 258.4247, "EPHEMERIS_TYPE": 0, "CLASSIFICATION_TYPE": "U", "NORAD_CAT_ID": 33899, "ELEMENT_SET_NO": 999, "REV_AT_EPOCH": 88996, "BSTAR": 0.00081478627, "MEAN_MOTION_DOT": 4.083e-05, "MEAN_MOTION_DDOT": 0}, "tle": {"line1": "1 33899U 93036DC  25357.47798488  .00004083  00000+0  81479-3 0  9996", "line2": "2 33899  74.0532  65.2153 0056026 124.7268 258.4247 14.61275441889963"}}, "geometry": {"type": "Point", "coordinates": [-98.03649266430594, -48.010912392793436]}}, {"type": "Feature", "properties": {"norad_id": 33900, "name": "COSMOS 2251 DEB", "group": "cosmos-2251-debris", "lat": 33.3319042413336, "lon": 146.76772590954587, "alt_km": 664.8721159061915, "timestamp": "2025-12-24T09:46:31.397718+00:00", "meta": {"OBJECT_NAME": "COSMOS 2251 DEB", "OBJECT_ID": "1993-036DD", "EPOCH": "2025-12-24T02:52:37.397856", "MEAN_MOTION": 14.58385264, "ECCENTRICITY": 0.0046381, "INCLINATION": 74.0184, "RA_OF_ASC_NODE": 338.1793, "ARG_OF_PERICENTER": 126.9461, "MEAN_ANOMALY": 309.4853, "EPHEMERIS_TYPE": 0, "CLASSIFICATION_TYPE": "U", "NORAD_CAT_ID": 33900, "ELEMENT_SET_NO": 999, "REV_AT_EPOCH": 89202, "BSTAR": 0.00036949, "MEAN_MOTION_DOT": 1.708e-05, "MEAN_MOTION_DDOT": 0}, "tle": {"line1": "1 33900U 93036DD  25358.11987729  .00001708  00000+0  36949-3 0  9992", "line2": "2 33900  74.0184 338.1793 0046381 126.9461 309.4853 14.58385264892025"}}, "geometry": {"type": "Point", "coordinates": [146.76772590954587, 33.3319042413336]}}, {"type": "Feature", "properties": {"norad_id": 33901, "name": "COSMOS 2251 DEB", "group": "cosmos-2251-debris", "lat": 44.32867081391153, "lon": 41.10437510583999, "alt_km": 516.804254341273, "timestamp": "2025-12-24T09:46:31.397728+00:00", "meta": {"OBJECT_NAME": "COSMOS 2251 DEB", "OBJECT_ID": "1993-036DE", "EPOCH": "2025-12-24T03:14:20.031648", "MEAN_MOTION": 15.17081005, "ECCENTRICITY": 0.0029741, "INCLINATION": 73.7736, "RA_OF_ASC_NODE": 25.1536, "ARG_OF_PERICENTER": 155.5023, "MEAN_ANOMALY": 204.7592, "EPHEMERIS_TYPE": 0, "CLASSIFICATION_TYPE": "U", "NORAD_CAT_ID": 33901, "ELEMENT_SET_NO": 999, "REV_AT_EPOCH": 89686, "BSTAR": 0.0026415, "MEAN_MOTION_DOT": 0.00053277, "MEAN_MOTION_DDOT": 0}, "tle": {"line1": "1 33901U 93036DE  25358.13495407  .00053277  00000+0  26415-2 0  9996", "line2": "2 33901  73.7736  25.1536 0029741 155.5023 204.7592 15.17081005896861"}}, "geometry": {"type": "Point", "coordinates": [41.10437510583999, 44.32867081391153]}}]}